ONEWEB-0320             
1 49190U 21083E   26094.26150766  .00017355  00000+0  43581-1 0  9993
2 49190  87.9230 350.1634 0001352  84.7143 275.4143 13.19185265220230
ONEWEB-0321             
1 49191U 21083F   26094.03502860  .00000109  00000+0  23546-3 0  9995
2 49191  87.9139 289.2404 0001986  85.1502 274.9858 13.20772497227047
ONEWEB-0322             
1 49192U 21083G   26094.18695436  .00000369  00000+0  97538-3 0  9994
2 49192  87.8991 334.9737 0002167  84.8470 275.2906 13.13469452221208
ONEWEB-0324             
1 49193U 21083H   26094.23206250  .00000098  00000+0  21469-3 0  9992
2 49193  87.9239 350.1479 0001736  74.3966 285.7358 13.18688678220252
ONEWEB-0325             
1 49194U 21083J   26094.23535843  .00000064  00000+0  12980-3 0  9997
2 49194  87.9229 350.1625 0001794  81.7045 278.4291 13.18689086220269
ONEWEB-0326             
1 49195U 21083K   26094.25035530  .00000123  00000+0  28010-3 0  9995
2 49195  87.9237 350.1510 0001491  85.7969 274.3334 13.18689623220254
ONEWEB-0327             
1 49196U 21083L   26094.25007728  .00000114  00000+0  25640-3 0  9990
2 49196  87.9231 350.1614 0001508  92.4529 267.6776 13.18687398220274
ONEWEB-0328             
1 49197U 21083M   26094.17679475  .00000172  00000+0  43588-3 0  9991
2 49197  87.9012 334.9395 0001696  76.3505 283.7813 13.13470552221180
ONEWEB-0331             
1 49198U 21083N   26094.24360886  .00000115  00000+0  25869-3 0  9992
2 49198  87.9237 350.1458 0001393  78.3483 281.7805 13.18685736220265
ONEWEB-0333             
1 49199U 21083P   26094.17171432  .00000048  00000+0  96962-4 0  9990
2 49199  87.8992 334.9746 0001723  82.9247 277.2078 13.13470465221190
ONEWEB-0334             
1 49200U 21083Q   26094.05239719  .00000038  00000+0  62490-4 0  9991
2 49200  87.9129 289.2527 0002710  91.4198 268.7246 13.20772269227005
ONEWEB-0335             
1 49201U 21083R   26094.16662597 -.00000229  00000+0 -66162-3 0  9991
2 49201  87.9000 334.9711 0001521  81.5000 278.6301 13.13471578221207
ONEWEB-0336             
1 49202U 21083S   26094.21402996  .00000101  00000+0  24076-3 0  9998
2 49202  87.8997 334.9583 0001313  76.2175 283.9100 13.13468503221202
ONEWEB-0337             
1 49203U 21083T   26094.22405850 -.00000156  00000+0 -46242-3 0  9993
2 49203  87.8992 334.9642 0001600  75.2124 284.9182 13.13471011221205
ONEWEB-0338             
1 49204U 21083U   26094.02714285  .00000167  00000+0  37832-3 0  9992
2 49204  87.9130 289.2627 0002069  90.1823 269.9548 13.20772528227028
ONEWEB-0339             
1 49205U 21083V   26094.23264473 -.00000223  00000+0 -64437-3 0  9991
2 49205  87.9002 334.9526 0002021  79.0401 281.0956 13.13468737221184
