[{"OBJECT_NAME":"ONEWEB-0320","OBJECT_ID":"2021-083E","EPOCH":"2026-04-04T06:16:34.261824","MEAN_MOTION":13.19185265,"ECCENTRICITY":0.0001352,"INCLINATION":87.923,"RA_OF_ASC_NODE":350.1634,"ARG_OF_PERICENTER":84.7143,"MEAN_ANOMALY":275.4143,"EPHEMERIS_TYPE":0,"CLASSIFICATION_TYPE":"U","NORAD_CAT_ID":49190,"ELEMENT_SET_NO":999,"REV_AT_EPOCH":22023,"BSTAR":0.043581,"MEAN_MOTION_DOT":0.00017355,"MEAN_MOTION_DDOT":0.0},{"OBJECT_NAME":"ONEWEB-0321","OBJECT_ID":"2021-083F","EPOCH":"2026-04-04T00:50:26.471040","MEAN_MOTION":13.20772497,"ECCENTRICITY":0.0001986,"INCLINATION":87.9139,"RA_OF_ASC_NODE":289.2404,"ARG_OF_PERICENTER":85.1502,"MEAN_ANOMALY":274.9858,"EPHEMERIS_TYPE":0,"CLASSIFICATION_TYPE":"U","NORAD_CAT_ID":49191,"ELEMENT_SET_NO":999,"REV_AT_EPOCH":22704,"BSTAR":0.00023546,"MEAN_MOTION_DOT":1.09e-06,"MEAN_MOTION_DDOT":0.0},{"OBJECT_NAME":"ONEWEB-0322","OBJECT_ID":"2021-083G","EPOCH":"2026-04-04T04:29:12.856704","MEAN_MOTION":13.13469452,"ECCENTRICITY":0.0002167,"INCLINATION":87.8991,"RA_OF_ASC_NODE":334.9737,"ARG_OF_PERICENTER":84.847,"MEAN_ANOMALY":275.2906,"EPHEMERIS_TYPE":0,"CLASSIFICATION_TYPE":"U","NORAD_CAT_ID":49192,"ELEMENT_SET_NO":999,"REV_AT_EPOCH":22120,"BSTAR":0.0009753800000000001,"MEAN_MOTION_DOT":3.69e-06,"MEAN_MOTION_DDOT":0.0},{"OBJECT_NAME":"ONEWEB-0324","OBJECT_ID":"2021-083H","EPOCH":"2026-04-04T05:34:10.200000","MEAN_MOTION":13.18688678,"ECCENTRICITY":0.0001736,"INCLINATION":87.9239,"RA_OF_ASC_NODE":350.1479,"ARG_OF_PERICENTER":74.3966,"MEAN_ANOMALY":285.7358,"EPHEMERIS_TYPE":0,"CLASSIFICATION_TYPE":"U","NORAD_CAT_ID":49193,"ELEMENT_SET_NO":999,"REV_AT_EPOCH":22025,"BSTAR":0.00021469,"MEAN_MOTION_DOT":9.8e-07,"MEAN_MOTION_DDOT":0.0},{"OBJECT_NAME":"ONEWEB-0325","OBJECT_ID":"2021-083J","EPOCH":"2026-04-04T05:38:54.968352","MEAN_MOTION":13.18689086,"ECCENTRICITY":0.0001794,"INCLINATION":87.9229,"RA_OF_ASC_NODE":350.1625,"ARG_OF_PERICENTER":81.7045,"MEAN_ANOMALY":278.4291,"EPHEMERIS_TYPE":0,"CLASSIFICATION_TYPE":"U","NORAD_CAT_ID":49194,"ELEMENT_SET_NO":999,"REV_AT_EPOCH":22026,"BSTAR":0.0001298,"MEAN_MOTION_DOT":6.4e-07,"MEAN_MOTION_DDOT":0.0},{"OBJECT_NAME":"ONEWEB-0326","OBJECT_ID":"2021-083K","EPOCH":"2026-04-04T06:00:30.697920","MEAN_MOTION":13.18689623,"ECCENTRICITY":0.0001491,"INCLINATION":87.9237,"RA_OF_ASC_NODE":350.151,"ARG_OF_PERICENTER":85.7969,"MEAN_ANOMALY":274.3334,"EPHEMERIS_TYPE":0,"CLASSIFICATION_TYPE":"U","NORAD_CAT_ID":49195,"ELEMENT_SET_NO":999,"REV_AT_EPOCH":22025,"BSTAR":0.00028010000000000003,"MEAN_MOTION_DOT":1.23e-06,"MEAN_MOTION_DDOT":0.0},{"OBJECT_NAME":"ONEWEB-0327","OBJECT_ID":"2021-083L","EPOCH":"2026-04-04T06:00:06.676992","MEAN_MOTION":13.18687398,"ECCENTRICITY":0.0001508,"INCLINATION":87.9231,"RA_OF_ASC_NODE":350.1614,"ARG_OF_PERICENTER":92.4529,"MEAN_ANOMALY":267.6776,"EPHEMERIS_TYPE":0,"CLASSIFICATION_TYPE":"U","NORAD_CAT_ID":49196,"ELEMENT_SET_NO":999,"REV_AT_EPOCH":22027,"BSTAR":0.0002564,"MEAN_MOTION_DOT":1.14e-06,"MEAN_MOTION_DDOT":0.0},{"OBJECT_NAME":"ONEWEB-0328","OBJECT_ID":"2021-083M","EPOCH":"2026-04-04T04:14:35.066400","MEAN_MOTION":13.13470552,"ECCENTRICITY":0.0001696,"INCLINATION":87.9012,"RA_OF_ASC_NODE":334.9395,"ARG_OF_PERICENTER":76.3505,"MEAN_ANOMALY":283.7813,"EPHEMERIS_TYPE":0,"CLASSIFICATION_TYPE":"U","NORAD_CAT_ID":49197,"ELEMENT_SET_NO":999,"REV_AT_EPOCH":22118,"BSTAR":0.00043588,"MEAN_MOTION_DOT":1.72e-06,"MEAN_MOTION_DDOT":0.0},{"OBJECT_NAME":"ONEWEB-0331","OBJECT_ID":"2021-083N","EPOCH":"2026-04-04T05:50:47.805504","MEAN_MOTION":13.18685736,"ECCENTRICITY":0.0001393,"INCLINATION":87.9237,"RA_OF_ASC_NODE":350.1458,"ARG_OF_PERICENTER":78.3483,"MEAN_ANOMALY":281.7805,"EPHEMERIS_TYPE":0,"CLASSIFICATION_TYPE":"U","NORAD_CAT_ID":49198,"ELEMENT_SET_NO":999,"REV_AT_EPOCH":22026,"BSTAR":0.00025869,"MEAN_MOTION_DOT":1.15e-06,"MEAN_MOTION_DDOT":0.0},{"OBJECT_NAME":"ONEWEB-0333","OBJECT_ID":"2021-083P","EPOCH":"2026-04-04T04:07:16.117248","MEAN_MOTION":13.13470465,"ECCENTRICITY":0.0001723,"INCLINATION":87.8992,"RA_OF_ASC_NODE":334.9746,"ARG_OF_PERICENTER":82.9247,"MEAN_ANOMALY":277.2078,"EPHEMERIS_TYPE":0,"CLASSIFICATION_TYPE":"U","NORAD_CAT_ID":49199,"ELEMENT_SET_NO":999,"REV_AT_EPOCH":22119,"BSTAR":9.696200000000001e-05,"MEAN_MOTION_DOT":4.8e-07,"MEAN_MOTION_DDOT":0.0},{"OBJECT_NAME":"ONEWEB-0334","OBJECT_ID":"2021-083Q","EPOCH":"2026-04-04T01:15:27.117216","MEAN_MOTION":13.20772269,"ECCENTRICITY":0.000271,"INCLINATION":87.9129,"RA_OF_ASC_NODE":289.2527,"ARG_OF_PERICENTER":91.4198,"MEAN_ANOMALY":268.7246,"EPHEMERIS_TYPE":0,"CLASSIFICATION_TYPE":"U","NORAD_CAT_ID":49200,"ELEMENT_SET_NO":999,"REV_AT_EPOCH":22700,"BSTAR":6.249e-05,"MEAN_MOTION_DOT":3.8e-07,"MEAN_MOTION_DDOT":0.0},{"OBJECT_NAME":"ONEWEB-0335","OBJECT_ID":"2021-083R","EPOCH":"2026-04-04T03:59:56.483808","MEAN_MOTION":13.13471578,"ECCENTRICITY":0.0001521,"INCLINATION":87.9,"RA_OF_ASC_NODE":334.9711,"ARG_OF_PERICENTER":81.5,"MEAN_ANOMALY":278.6301,"EPHEMERIS_TYPE":0,"CLASSIFICATION_TYPE":"U","NORAD_CAT_ID":49201,"ELEMENT_SET_NO":999,"REV_AT_EPOCH":22120,"BSTAR":-0.00066162,"MEAN_MOTION_DOT":-2.29e-06,"MEAN_MOTION_DDOT":0.0},{"OBJECT_NAME":"ONEWEB-0336","OBJECT_ID":"2021-083S","EPOCH":"2026-04-04T05:08:12.188544","MEAN_MOTION":13.13468503,"ECCENTRICITY":0.0001313,"INCLINATION":87.8997,"RA_OF_ASC_NODE":334.9583,"ARG_OF_PERICENTER":76.2175,"MEAN_ANOMALY":283.91,"EPHEMERIS_TYPE":0,"CLASSIFICATION_TYPE":"U","NORAD_CAT_ID":49202,"ELEMENT_SET_NO":999,"REV_AT_EPOCH":22120,"BSTAR":0.00024076000000000002,"MEAN_MOTION_DOT":1.01e-06,"MEAN_MOTION_DDOT":0.0},{"OBJECT_NAME":"ONEWEB-0337","OBJECT_ID":"2021-083T","EPOCH":"2026-04-04T05:22:38.654400","MEAN_MOTION":13.13471011,"ECCENTRICITY":0.00016,"INCLINATION":87.8992,"RA_OF_ASC_NODE":334.9642,"ARG_OF_PERICENTER":75.2124,"MEAN_ANOMALY":284.9182,"EPHEMERIS_TYPE":0,"CLASSIFICATION_TYPE":"U","NORAD_CAT_ID":49203,"ELEMENT_SET_NO":999,"REV_AT_EPOCH":22120,"BSTAR":-0.00046242,"MEAN_MOTION_DOT":-1.56e-06,"MEAN_MOTION_DDOT":0.0},{"OBJECT_NAME":"ONEWEB-0338","OBJECT_ID":"2021-083U","EPOCH":"2026-04-04T00:39:05.142240","MEAN_MOTION":13.20772528,"ECCENTRICITY":0.0002069,"INCLINATION":87.913,"RA_OF_ASC_NODE":289.2627,"ARG_OF_PERICENTER":90.1823,"MEAN_ANOMALY":269.9548,"EPHEMERIS_TYPE":0,"CLASSIFICATION_TYPE":"U","NORAD_CAT_ID":49204,"ELEMENT_SET_NO":999,"REV_AT_EPOCH":22702,"BSTAR":0.00037832,"MEAN_MOTION_DOT":1.67e-06,"MEAN_MOTION_DDOT":0.0},{"OBJECT_NAME":"ONEWEB-0339","OBJECT_ID":"2021-083V","EPOCH":"2026-04-04T05:35:00.504672","MEAN_MOTION":13.13468737,"ECCENTRICITY":0.0002021,"INCLINATION":87.9002,"RA_OF_ASC_NODE":334.9526,"ARG_OF_PERICENTER":79.0401,"MEAN_ANOMALY":281.0956,"EPHEMERIS_TYPE":0,"CLASSIFICATION_TYPE":"U","NORAD_CAT_ID":49205,"ELEMENT_SET_NO":999,"REV_AT_EPOCH":22118,"BSTAR":-0.00064437,"MEAN_MOTION_DOT":-2.23e-06,"MEAN_MOTION_DDOT":0.0}]